0 BREEZE-M DEB
1 38971U 12044DE  13283.46286356  .00038596  27052-5  10470-2 0   713
2 38971 050.1043 357.5692 2439214 085.0406 302.3923 10.54869662 36758
0 BREEZE-M DEB
1 38971U 12044DE  13284.22083087  .00046331  27597-5  13036-2 0   726
2 38971 050.1119 355.7820 2436299 086.5152 300.9689 10.54962972 36839
0 BREEZE-M DEB
1 38971U 12044DE  13285.54717245  .00044865  27519-5  12574-2 0   733
2 38971 050.1178 352.6539 2436010 089.0788 298.5018 10.55079379 36975
0 BREEZE-M DEB
1 38971U 12044DE  13286.21031426  .00043695  27449-5  12232-2 0   742
2 38971 050.1191 351.0971 2435856 090.3099 297.3716 10.55132412 37049
0 BREEZE-M DEB
1 38971U 12044DE  13286.58924460  .00039003  27159-5  10904-2 0   752
2 38971 050.1207 350.1952 2436011 091.1060 296.6808 10.55149960 37081
0 BREEZE-M DEB
1 38971U 12044DE  13287.53649846  .00038360  27127-5  10724-2 0   761
2 38971 050.1197 347.9583 2435683 092.9513 294.9722 10.55222169 37189
0 BREEZE-M DEB
1 38971U 12044DE  13288.19953359  .00038776  27155-5  10877-2 0   773
2 38971 050.1177 346.4003 2435195 094.2340 293.7817 10.55276671 37256
0 BREEZE-M DEB
1 38971U 12044DE  13290.56713731  .00041410  00000-0  11397-2 0   799
2 38971 050.1383 340.8173 2433566 098.7993 289.4055 10.55512681 37502
0 BREEZE-M DEB
1 38971U 12044DE  13290.56719731  .00046090  27592-5  12674-2 0   782
2 38971 050.1161 340.8153 2434998 098.8472 289.5928 10.55513732 37505
0 BREEZE-M DEB
1 38971U 12044DE  13291.51401021  .00046052  27580-5  12722-2 0   798
2 38971 050.1096 338.5770 2434290 100.6639 287.4893 10.55601061 37605
0 BREEZE-M DEB
1 38971U 12044DE  13292.36613800  .00043239  27356-5  11686-2 0   807
2 38971 050.1163 336.5596 2435381 102.2546 285.8308 10.55665296 37693
0 BREEZE-M DEB
1 38971U 12044DE  13295.11146800  .00041984  27196-5  11408-2 0   814
2 38971 050.1186 330.0776 2433936 107.5955 280.3292 10.55900868 37984
0 BREEZE-M DEB
1 38971U 12044DE  13295.30078299  .00041089  27141-5  11292-2 0   829
2 38971 050.1212 329.6338 2433232 108.0076 279.9189 10.55912177 38000
